NORAD_CAT_ID,OBJECT_NAME,OBJECT_TYPE,EPOCH,MEAN_MOTION,ECCENTRICITY,INCLINATION,RA_OF_ASC_NODE,ARG_OF_PERICENTER,MEAN_ANOMALY,BSTAR,MEAN_MOTION_DOT,MEAN_MOTION_DDOT,TLE_LINE0,TLE_LINE1,TLE_LINE2,SEMIMAJOR_AXIS,PERIOD,APOGEE,PERIGEE,DECAYED
53917.0,STARLINK-5036,PAYLOAD,2023-10-28 12:13:40,15.08839184,0.0001538,53.2173,229.1119,96.6509,263.4658,4.1776e-05,3.77e-06,0.0,0 STARLINK-5036,1 53917U 22119AH  23301.50949536  .00000377  00000-0  41776-4 0  9996,2 53917  53.2173 229.1119 0001538  96.6509 263.4658 15.08839184 61519,6917.883,95.438,540.812,538.684,0.0
53917.0,STARLINK-5036,PAYLOAD,2023-10-28 18:35:13,15.08835756,0.0001608,53.218,227.9241,99.7914,260.326,3.2564e-05,2.3e-06,0.0,0 STARLINK-5036,1 53917U 22119AH  23301.77445860  .00000230  00000-0  32564-4 0  9999,2 53917  53.2180 227.9241 0001608  99.7914 260.3260 15.08835756 61551,6917.893,95.438,540.871,538.646,0.0
53917.0,STARLINK-5036,PAYLOAD,2023-10-29 02:32:08,15.08848753,0.0001523,53.2169,226.4328,97.8151,262.3014,0.000178,2.547e-05,0.0,0 STARLINK-5036,1 53917U 22119AH  23302.10565321  .00002547  00000-0  17800-3 0  9990,2 53917  53.2169 226.4328 0001523  97.8151 262.3014 15.08848753 61185,6917.854,95.437,540.772,538.665,0.0
53917.0,STARLINK-5036,PAYLOAD,2023-10-29 18:26:00,15.08840532,0.0001752,53.218,223.4647,102.5097,257.6091,0.00026774,3.976e-05,0.0,0 STARLINK-5036,1 53917U 22119AH  23302.76806117  .00003976  00000-0  26774-3 0  9990,2 53917  53.2180 223.4647 0001752 102.5097 257.6091 15.08840532 61286,6917.879,95.438,540.956,538.532,0.0
53917.0,STARLINK-5036,PAYLOAD,2023-10-30 18:16:48,15.0883326,0.0001835,53.2179,219.0032,87.6928,272.4275,6.1566e-05,6.92e-06,0.0,0 STARLINK-5036,1 53917U 22119AH  23303.76167086  .00000692  00000-0  61566-4 0  9997,2 53917  53.2179 219.0032 0001835  87.6928 272.4275 15.08833260 61437,6917.901,95.438,541.035,538.497,0.0
53917.0,STARLINK-5036,PAYLOAD,2023-10-31 11:46:02,15.08835631,0.0001582,53.2177,215.7313,89.9137,270.2037,0.00019614,2.835e-05,0.0,0 STARLINK-5036,1 53917U 22119AH  23304.49031200  .00002835  00000-0  19614-3 0  9993,2 53917  53.2177 215.7313 0001582  89.9137 270.2037 15.08835631 61960,6917.894,95.438,540.853,538.664,0.0
53917.0,STARLINK-5036,PAYLOAD,2023-10-31 18:07:35,15.08842433,0.0001361,53.2173,214.5425,79.4363,280.6782,0.00034583,5.221e-05,0.0,0 STARLINK-5036,1 53917U 22119AH  23304.75527063  .00005221  00000-0  34583-3 0  9993,2 53917  53.2173 214.5425 0001361  79.4363 280.6782 15.08842433 62003,6917.873,95.437,540.679,538.796,0.0
53917.0,STARLINK-5036,PAYLOAD,2023-11-01 03:39:53,15.08866337,0.0001522,53.2167,212.757,90.2122,269.9045,0.0010107,0.00015845,0.0,0 STARLINK-5036,1 53917U 22119AH  23305.15270392  .00015845  00000-0  10107-2 0  9996,2 53917  53.2167 212.7570 0001522  90.2122 269.9045 15.08866337 61640,6917.8,95.436,540.718,538.612,0.0
53917.0,STARLINK-5036,PAYLOAD,2023-11-01 11:36:49,15.08855182,0.0001591,53.2169,211.2709,90.4753,269.6422,0.00027794,4.14e-05,0.0,0 STARLINK-5036,1 53917U 22119AH  23305.48390418  .00004140  00000-0  27794-3 0  9991,2 53917  53.2169 211.2709 0001591  90.4753 269.6422 15.08855182 61695,6917.834,95.437,540.8,538.598,0.0
53917.0,STARLINK-5036,PAYLOAD,2023-11-01 22:44:30,15.08855755,0.0001535,53.2162,209.1892,107.6557,252.4603,0.00033673,5.077e-05,0.0,0 STARLINK-5036,1 53917U 22119AH  23305.94758066  .00005077  00000-0  33673-3 0  9992,2 53917  53.2162 209.1892 0001535 107.6557 252.4603 15.08855755 62180,6917.832,95.437,540.759,538.635,0.0
53917.0,STARLINK-5036,PAYLOAD,2023-11-02 22:35:18,15.08847801,0.0001368,53.216,204.7284,99.564,260.5507,0.00031964,4.804e-05,0.0,0 STARLINK-5036,1 53917U 22119AH  23306.94118271  .00004804  00000-0  31964-3 0  9999,2 53917  53.2160 204.7284 0001368  99.5640 260.5507 15.08847801 62333,6917.857,95.437,540.668,538.775,0.0
53917.0,STARLINK-5036,PAYLOAD,2023-11-03 03:21:27,15.08850403,0.0001302,53.2168,203.8362,90.6675,269.4466,0.00064032,9.92e-05,0.0,0 STARLINK-5036,1 53917U 22119AH  23307.13990271  .00009920  00000-0  64032-3 0  9995,2 53917  53.2168 203.8362 0001302  90.6675 269.4466 15.08850403 61946,6917.849,95.437,540.614,538.813,0.0
53917.0,STARLINK-5036,PAYLOAD,2023-11-03 09:43:00,15.08839495,0.0001274,53.216,202.6442,80.9993,279.1143,0.00026203,3.885e-05,0.0,0 STARLINK-5036,1 53917U 22119AH  23307.40486470  .00003885  00000-0  26203-3 0  9998,2 53917  53.2160 202.6442 0001274  80.9993 279.1143 15.08839495 61989,6917.882,95.438,540.628,538.866,0.0
53917.0,STARLINK-5036,PAYLOAD,2023-11-03 22:26:05,15.08843998,0.0001458,53.2168,200.2681,102.4445,257.671,0.00020509,2.978e-05,0.0,0 STARLINK-5036,1 53917U 22119AH  23307.93478450  .00002978  00000-0  20509-3 0  9990,2 53917  53.2168 200.2681 0001458 102.4445 257.6710 15.08843998 62482,6917.868,95.437,540.742,538.725,0.0
53917.0,STARLINK-5036,PAYLOAD,2023-11-04 09:33:47,15.08845958,0.0001575,53.2173,198.1863,87.816,272.3013,0.0004049,6.163e-05,0.0,0 STARLINK-5036,1 53917U 22119AH  23308.39846479  .00006163  00000-0  40490-3 0  9992,2 53917  53.2173 198.1863 0001575  87.8160 272.3013 15.08845958 62551,6917.862,95.437,540.817,538.638,0.0
53917.0,STARLINK-5036,PAYLOAD,2023-11-04 20:41:29,15.0883572,0.0001366,53.2166,196.1062,103.9535,256.1609,5.6587e-06,-1.98e-06,0.0,0 STARLINK-5036,1 53917U 22119AH  23308.86214717 -.00000198  00000-0  56587-5 0  9997,2 53917  53.2166 196.1062 0001366 103.9535 256.1609 15.08835720 62205,6917.893,95.438,540.703,538.813,0.0
53917.0,STARLINK-5036,PAYLOAD,2023-11-04 22:16:52,15.0884188,0.0001321,53.2167,195.808,93.6636,266.4508,0.00011861,1.6e-05,0.0,0 STARLINK-5036,1 53917U 22119AH  23308.92838611  .00001600  00000-0  11861-3 0  9991,2 53917  53.2167 195.8080 0001321  93.6636 266.4508 15.08841880 62633,6917.875,95.437,540.653,538.826,0.0
53917.0,STARLINK-5036,PAYLOAD,2023-11-05 03:03:01,15.08859977,0.0001102,53.2166,194.9157,92.5489,267.5629,0.00088535,0.00013838,0.0,0 STARLINK-5036,1 53917U 22119AH  23309.12710097  .00013838  00000-0  88535-3 0  9999,2 53917  53.2166 194.9157 0001102  92.5489 267.5629 15.08859977 62247,6917.819,95.436,540.447,538.922,0.0
53917.0,STARLINK-5036,PAYLOAD,2023-11-05 09:24:34,15.08856177,0.0001272,53.217,193.7267,94.9072,265.2065,0.00079752,0.00012433,0.0,0 STARLINK-5036,1 53917U 22119AH  23309.39206167  .00012433  00000-0  79752-3 0  9997,2 53917  53.2170 193.7267 0001272  94.9072 265.2065 15.08856177 62285,6917.831,95.437,540.576,538.816,0.0
53917.0,STARLINK-5036,PAYLOAD,2023-11-05 22:07:38,15.08869717,0.0001662,53.2169,191.3464,85.05,275.0682,0.00081335,0.00012691,0.0,0 STARLINK-5036,1 53917U 22119AH  23309.92197459  .00012691  00000-0  81335-3 0  9995,2 53917  53.2169 191.3464 0001662  85.0500 275.0682 15.08869717 62789,6917.79,95.436,540.804,538.505,0.0
53917.0,STARLINK-5036,PAYLOAD,2023-11-06 09:15:19,15.0886753,0.0001262,53.2167,189.265,110.3272,249.7856,0.00044463,6.801e-05,0.0,0 STARLINK-5036,1 53917U 22119AH  23310.38564629  .00006801  00000-0  44463-3 0  9991,2 53917  53.2167 189.2650 0001262 110.3272 249.7856 15.08867530 62438,6917.796,95.436,540.534,538.788,0.0
53917.0,STARLINK-5036,PAYLOAD,2023-11-06 21:58:25,15.08827572,0.0001175,53.2165,186.8877,88.9843,271.1283,-0.00059108,-9.679e-05,0.0,0 STARLINK-5036,1 53917U 22119AH  23310.91557603 -.00009679  00000-0 -59108-3 0  9994,2 53917  53.2165 186.8877 0001175  88.9843 271.1283 15.08827572 62937,6917.918,95.438,540.596,538.971,0.0
53917.0,STARLINK-5036,PAYLOAD,2023-11-07 01:09:12,15.08815487,0.0001333,53.2169,186.2922,95.7343,264.3801,-0.00074135,-0.00012059,0.0,0 STARLINK-5036,1 53917U 22119AH  23311.04806123 -.00012059  00000-0 -74135-3 0  9996,2 53917  53.2169 186.2922 0001333  95.7343 264.3801 15.08815487 62531,6917.955,95.439,540.742,538.898,0.0
53917.0,STARLINK-5036,PAYLOAD,2023-11-07 09:06:08,15.08819973,0.0001313,53.2173,184.8052,103.7697,256.3441,-0.00025841,-4.396e-05,0.0,0 STARLINK-5036,1 53917U 22119AH  23311.37926539 -.00004396  00000-0 -25841-3 0  9991,2 53917  53.2173 184.8052 0001313 103.7697 256.3441 15.08819973 63002,6917.942,95.439,540.715,538.898,0.0
53917.0,STARLINK-5036,PAYLOAD,2023-11-07 21:49:14,15.08827317,0.0001499,53.2167,182.4268,103.1562,256.9598,0.00041054,6.25e-05,0.0,0 STARLINK-5036,1 53917U 22119AH  23311.90919205  .00006250  00000-0  41054-3 0  9995,2 53917  53.2167 182.4268 0001499 103.1562 256.9598 15.08827317 62669,6917.919,95.438,540.821,538.747,0.0
53917.0,STARLINK-5036,PAYLOAD,2023-11-08 21:40:01,15.0884889,0.0001062,53.2169,177.9683,89.7515,270.3598,0.0007518,0.000117,0.0,0 STARLINK-5036,1 53917U 22119AH  23312.90279291  .00011700  00000-0  75180-3 0  9993,2 53917  53.2169 177.9683 0001062  89.7515 270.3598 15.08848890 63237,6917.853,95.437,540.453,538.984,0.0
53917.0,STARLINK-5036,PAYLOAD,2023-11-09 00:50:47,15.08846949,0.0001391,53.217,177.3709,101.0475,259.0673,0.00058903,9.101e-05,0.0,0 STARLINK-5036,1 53917U 22119AH  23313.03527383  .00009101  00000-0  58903-3 0  9992,2 53917  53.2170 177.3709 0001391 101.0475 259.0673 15.08846949 62836,6917.859,95.437,540.686,538.762,0.0
53917.0,STARLINK-5036,PAYLOAD,2023-11-09 19:55:25,15.08840644,0.0001099,53.2171,173.8072,42.391,317.7167,0.00026151,3.877e-05,0.0,0 STARLINK-5036,1 53917U 22119AH  23313.83015776  .00003877  00000-0  26151-3 0  9992,2 53917  53.2171 173.8072 0001099  42.3910 317.7167 15.08840644 62956,6917.878,95.438,540.504,538.983,0.0
53917.0,STARLINK-5036,PAYLOAD,2023-11-09 21:30:48,15.08845896,0.0001234,53.2167,173.5064,92.2413,267.872,0.00033469,5.044e-05,0.0,0 STARLINK-5036,1 53917U 22119AH  23313.89639651  .00005044  00000-0  33469-3 0  9990,2 53917  53.2167 173.5064 0001234  92.2413 267.8720 15.08845896 63384,6917.862,95.437,540.581,538.874,0.0
53917.0,STARLINK-5036,PAYLOAD,2023-11-10 00:41:34,15.0884551,0.0001321,53.2167,172.9103,92.1888,267.9256,0.00028283,4.217e-05,0.0,0 STARLINK-5036,1 53917U 22119AH  23314.02887591  .00004217  00000-0  28283-3 0  9993,2 53917  53.2167 172.9103 0001321  92.1888 267.9256 15.08845510 63404,6917.864,95.437,540.642,538.815,0.0
